[{"OBJECT_NAME":"CAS500-1","OBJECT_ID":"2021-022A","EPOCH":"2026-03-09T23:57:39.791808","MEAN_MOTION":15.20304346,"ECCENTRICITY":0.00036012,"INCLINATION":97.4003,"RA_OF_ASC_NODE":326.196,"ARG_OF_PERICENTER":278.8383,"MEAN_ANOMALY":81.2444,"EPHEMERIS_TYPE":0,"CLASSIFICATION_TYPE":"U","NORAD_CAT_ID":47932,"ELEMENT_SET_NO":999,"REV_AT_EPOCH":27569,"BSTAR":0.00044667126,"MEAN_MOTION_DOT":9.645e-5,"MEAN_MOTION_DDOT":0},{"OBJECT_NAME":"IRIDE FM3","OBJECT_ID":"2025-276AH","EPOCH":"2026-03-09T16:50:39.561792","MEAN_MOTION":15.19640747,"ECCENTRICITY":6.614e-5,"INCLINATION":97.4248,"RA_OF_ASC_NODE":144.0388,"ARG_OF_PERICENTER":25.5203,"MEAN_ANOMALY":334.6065,"EPHEMERIS_TYPE":0,"CLASSIFICATION_TYPE":"U","NORAD_CAT_ID":66697,"ELEMENT_SET_NO":999,"REV_AT_EPOCH":1532,"BSTAR":0.00053468089,"MEAN_MOTION_DOT":0.00011338,"MEAN_MOTION_DDOT":0}]
